NORAD_CAT_ID,OBJECT_NAME,OBJECT_TYPE,EPOCH,MEAN_MOTION,ECCENTRICITY,INCLINATION,RA_OF_ASC_NODE,ARG_OF_PERICENTER,MEAN_ANOMALY,BSTAR,MEAN_MOTION_DOT,MEAN_MOTION_DDOT,TLE_LINE0,TLE_LINE1,TLE_LINE2,SEMIMAJOR_AXIS,PERIOD,APOGEE,PERIGEE,DECAYED
51856.0,STARLINK-3568,PAYLOAD,2022-11-22 03:08:15,15.088397400000002,0.0001730999999999,53.219,22.1135,46.6508,313.4628,6.8784e-05,8.07e-06,0.0,0 STARLINK-3568,1 51856U 22022E   22326.13073648  .00000807  00000-0  68784-4 0  9992,2 51856  53.2190  22.1135 0001731  46.6508 313.4628 15.08839740 41357,6917.880999999999,95.438,540.944,538.549,0.0
51856.0,STARLINK-3568,PAYLOAD,2022-11-22 11:05:10,15.08850181,0.0001875,53.2189,20.6275,47.08600000000001,313.0289,9.8115e-05,1.274e-05,0.0,0 STARLINK-3568,1 51856U 22022E   22326.46192932  .00001274  00000-0  98115-4 0  9996,2 51856  53.2189  20.6275 0001875  47.0860 313.0289 15.08850181 41405,6917.849,95.437,541.011,538.4169999999998,0.0
51856.0,STARLINK-3568,PAYLOAD,2022-11-22 14:15:57,15.08849907,0.0002039,53.2188,20.033,41.2676,318.847,0.00010049,1.312e-05,0.0,0 STARLINK-3568,1 51856U 22022E   22326.59440984  .00001312  00000-0  10049-3 0  9995,2 51856  53.2188  20.0330 0002039  41.2676 318.8470 15.08849907 41425,6917.85,95.437,541.126,538.305,0.0
51856.0,STARLINK-3568,PAYLOAD,2022-11-23 02:59:02,15.0883607,0.0002012,53.2188,17.6542,39.6774,320.4365,7.2982e-05,8.73e-06,0.0,0 STARLINK-3568,1 51856U 22022E   22327.12433872  .00000873  00000-0  72982-4 0  9999,2 51856  53.2188  17.6542 0002012  39.6774 320.4365 15.08836070 41501,6917.892,95.438,541.149,538.366,0.0
51856.0,STARLINK-3568,PAYLOAD,2022-11-23 09:20:35,15.08836813,0.0002218,53.2194,16.4658,40.3852,319.7305,0.00014178,1.969e-05,0.0,0 STARLINK-3568,1 51856U 22022E   22327.38929814  .00001969  00000-0  14178-3 0  9992,2 51856  53.2194  16.4658 0002218  40.3852 319.7305 15.08836813 41541,6917.89,95.438,541.29,538.221,0.0
51856.0,STARLINK-3568,PAYLOAD,2022-11-23 15:42:08,15.08831091,0.0002263,53.2192,15.2766,40.8397,319.2765,7.1515e-05,8.5e-06,0.0,0 STARLINK-3568,1 51856U 22022E   22327.65426389  .00000850  00000-0  71515-4 0  9998,2 51856  53.2192  15.2766 0002263  40.8397 319.2765 15.08831091 41587,6917.908,95.438,541.3380000000002,538.207,0.0
51856.0,STARLINK-3568,PAYLOAD,2022-11-24 10:46:45,15.08846284,0.0002178,53.2189,11.7073,41.6054,318.5104,4.2852e-05,3.94e-06,0.0,0 STARLINK-3568,1 51856U 22022E   22328.44913533  .00000394  00000-0  42852-4 0  9993,2 51856  53.2189  11.7073 0002178  41.6054 318.5104 15.08846284 41702,6917.861,95.437,541.2330000000002,538.219,0.0
51856.0,STARLINK-3568,PAYLOAD,2022-11-24 12:22:08,15.0884791,0.0002062,53.2191,11.4094,44.1223,315.9933,6.0087e-05,6.68e-06,0.0,0 STARLINK-3568,1 51856U 22022E   22328.51537358  .00000668  00000-0  60087-4 0  9992,2 51856  53.2191  11.4094 0002062  44.1223 315.9933 15.08847910 41712,6917.856,95.437,541.148,538.295,0.0
51856.0,STARLINK-3568,PAYLOAD,2022-11-24 20:19:03,15.08850844,0.0002196,53.2193,9.9227,42.2774,317.8387,9.5499e-05,1.232e-05,0.0,0 STARLINK-3568,1 51856U 22022E   22328.84656919  .00001232  00000-0  95499-4 0  9996,2 51856  53.2193   9.9227 0002196  42.2774 317.8387 15.08850844 41761,6917.847,95.437,541.231,538.193,0.0
51856.0,STARLINK-3568,PAYLOAD,2022-11-25 09:02:09,15.08842837,0.0002083,53.2193,7.5431,48.694,311.4232,2.8847e-05,1.71e-06,0.0,0 STARLINK-3568,1 51856U 22022E   22329.37649558  .00000171  00000-0  28847-4 0  9990,2 51856  53.2193   7.5431 0002083  48.6940 311.4232 15.08842837 41843,6917.871999999999,95.437,541.178,538.2959999999998,0.0
51856.0,STARLINK-3568,PAYLOAD,2022-11-25 12:12:55,15.08846695,0.0002078,53.2194,6.9485,52.7912,307.327,3.9376e-05,3.39e-06,0.0,0 STARLINK-3568,1 51856U 22022E   22329.50897341  .00000339  00000-0  39376-4 0  9995,2 51856  53.2194   6.9485 0002078  52.7912 307.3270 15.08846695 41869,6917.86,95.437,541.1619999999998,538.2869999999998,0.0
51856.0,STARLINK-3568,PAYLOAD,2022-11-25 20:09:50,15.08846675,0.0002094,53.2196,5.4618,47.7213,312.3957,0.00020846,3.032e-05,0.0,0 STARLINK-3568,1 51856U 22022E   22329.84017021  .00003032  00000-0  20846-3 0  9995,2 51856  53.2196   5.4618 0002094  47.7213 312.3957 15.08846675 41911,6917.86,95.437,541.174,538.276,0.0
51856.0,STARLINK-3568,PAYLOAD,2022-11-26 12:03:42,15.08847938,0.0002152,53.2188,2.4891,45.7601,314.3567,0.00011214,1.497e-05,0.0,0 STARLINK-3568,1 51856U 22022E   22330.50257045  .00001497  00000-0  11214-3 0  9994,2 51856  53.2188   2.4891 0002152  45.7601 314.3567 15.08847938 42010,6917.856,95.437,541.21,538.232,0.0
51856.0,STARLINK-3568,PAYLOAD,2022-11-27 08:43:42,15.08839465,0.0001862,53.2188,358.6227,45.7628,314.3517,-1.0474e-06,-3.05e-06,0.0,0 STARLINK-3568,1 51856U 22022E   22331.36369102 -.00000305  00000-0 -10474-5 0  9995,2 51856  53.2188 358.6227 0001862  45.7628 314.3517 15.08839465 42140,6917.882,95.438,541.035,538.4590000000002,0.0
51856.0,STARLINK-3568,PAYLOAD,2022-11-27 11:54:29,15.08830088,0.0002079,53.2181,358.0284,39.0831,321.0311,-0.00013799,-2.483e-05,0.0,0 STARLINK-3568,1 51856U 22022E   22331.49617670 -.00002483  00000-0 -13799-3 0  9995,2 51856  53.2181 358.0284 0002079  39.0831 321.0311 15.08830088 42164,6917.911,95.438,541.214,538.337,0.0
51856.0,STARLINK-3568,PAYLOAD,2022-11-28 13:20:40,15.0883055,0.0002168,53.219,353.2708,41.4484,318.6672,-4.2585e-05,-9.66e-06,0.0,0 STARLINK-3568,1 51856U 22022E   22332.55602319 -.00000966  00000-0 -42585-4 0  9997,2 51856  53.2190 353.2708 0002168  41.4484 318.6672 15.08830550 42326,6917.909000000002,95.438,541.274,538.274,0.0
51856.0,STARLINK-3568,PAYLOAD,2022-11-29 11:36:03,15.08836918,0.0002163,53.2188,349.1076,39.5903,320.5247,0.00018121,2.597e-05,0.0,0 STARLINK-3568,1 51856U 22022E   22333.48337671  .00002597  00000-0  18121-3 0  9994,2 51856  53.2188 349.1076 0002163  39.5903 320.5247 15.08836918 42463,6917.89,95.438,541.251,538.258,0.0
51856.0,STARLINK-3568,PAYLOAD,2022-11-29 17:57:36,15.08835425,0.0002204,53.2189,347.918,40.1829,319.9326,0.00015669,2.206e-05,0.0,0 STARLINK-3568,1 51856U 22022E   22333.74834003  .00002206  00000-0  15669-3 0  9995,2 51856  53.2189 347.9180 0002204  40.1829 319.9326 15.08835425 42504,6917.894,95.438,541.284,538.235,0.0
51856.0,STARLINK-3568,PAYLOAD,2022-11-30 13:02:14,15.0884293,0.0002299,53.2181,344.3504,42.8061,317.311,0.00010014,1.306e-05,0.0,0 STARLINK-3568,1 51856U 22022E   22334.54321828  .00001306  00000-0  10014-3 0  9999,2 51856  53.2181 344.3504 0002299  42.8061 317.3110 15.08842930 42623,6917.871,95.437,541.327,538.146,0.0
51856.0,STARLINK-3568,PAYLOAD,2022-12-01 12:53:01,15.08842224,0.0002426,53.2179,339.8898,44.0668,316.0517,5.0857e-05,5.21e-06,0.0,0 STARLINK-3568,1 51856U 22022E   22335.53681944  .00000521  00000-0  50857-4 0  9995,2 51856  53.2179 339.8898 0002426  44.0668 316.0517 15.08842224 42773,6917.874,95.437,541.4169999999998,538.06,0.0
51856.0,STARLINK-3568,PAYLOAD,2022-12-01 17:39:10,15.08835918,0.0002426,53.2179,338.9976,43.924,316.1945,-5.1338e-05,-1.105e-05,0.0,0 STARLINK-3568,1 51856U 22022E   22335.73554260 -.00001105  00000-0 -51338-4 0  9993,2 51856  53.2179 338.9976 0002426  43.9240 316.1945 15.08835918 42806,6917.893,95.438,541.436,538.08,0.0
51856.0,STARLINK-3568,PAYLOAD,2022-12-02 11:08:24,15.08848593,0.0002225,53.2186,335.7257,42.797,317.3195,8.775100000000001e-05,1.109e-05,0.0,0 STARLINK-3568,1 51856U 22022E   22336.46417513  .00001109  00000-0  87751-4 0  9993,2 51856  53.2186 335.7257 0002225  42.7970 317.3195 15.08848593 42910,6917.854,95.437,541.258,538.18,0.0
51856.0,STARLINK-3568,PAYLOAD,2022-12-02 17:29:57,15.088385699999998,0.000216,53.2184,334.5361,45.358,314.7588,2.236e-05,6.8e-07,0.0,0 STARLINK-3568,1 51856U 22022E   22336.72914321  .00000068  00000-0  22360-4 0  9999,2 51856  53.2184 334.5361 0002160  45.3580 314.7588 15.08838570 42950,6917.885,95.438,541.244,538.255,0.0
51856.0,STARLINK-3568,PAYLOAD,2022-12-03 10:59:12,15.0883309,0.0002228,53.2186,331.2661,39.0998,321.0155,2.8162e-07,-2.84e-06,0.0,0 STARLINK-3568,1 51856U 22022E   22337.45778764 -.00000284  00000-0  28162-6 0  9998,2 51856  53.2186 331.2661 0002228  39.0998 321.0155 15.08833090 43063,6917.901999999999,95.438,541.308,538.225,0.0
51856.0,STARLINK-3568,PAYLOAD,2022-12-04 09:14:36,15.08840872,0.0002276,53.2194,327.1042,44.6352,315.4823,5.6342e-05,6.09e-06,0.0,0 STARLINK-3568,1 51856U 22022E   22338.38514417  .00000609  00000-0  56342-4 0  9993,2 51856  53.2194 327.1042 0002276  44.6352 315.4823 15.08840872 43209,6917.878000000002,95.437,541.317,538.168,0.0
51856.0,STARLINK-3568,PAYLOAD,2022-12-04 10:49:59,15.08836289,0.0002302,53.2183,326.8047,43.0463,317.0709,-8.2975e-06,-4.2e-06,0.0,0 STARLINK-3568,1 51856U 22022E   22338.45138868 -.00000420  00000-0 -82975-5 0  9998,2 51856  53.2183 326.8047 0002302  43.0463 317.0709 15.08836289 43213,6917.892,95.438,541.349,538.164,0.0
51856.0,STARLINK-3568,PAYLOAD,2022-12-05 09:05:23,15.08843007,0.0002099,53.2181,322.6427,36.2544,323.8590000000001,0.00022261,3.257e-05,0.0,0 STARLINK-3568,1 51856U 22022E   22339.37874402  .00003257  00000-0  22261-3 0  9990,2 51856  53.2181 322.6427 0002099  36.2544 323.8590 15.08843007 43358,6917.871,95.437,541.188,538.284,0.0
51856.0,STARLINK-3568,PAYLOAD,2022-12-06 08:56:10,15.08841837,0.0002191,53.2186,318.1828,39.1798,320.9352,1.2061e-05,-9.6e-07,0.0,0 STARLINK-3568,1 51856U 22022E   22340.37234193 -.00000096  00000-0  12061-4 0  9996,2 51856  53.2186 318.1828 0002191  39.1798 320.9352 15.08841837 43504,6917.875,95.437,541.255,538.224,0.0
51856.0,STARLINK-3568,PAYLOAD,2022-12-06 15:17:43,15.08836022,0.0002314,53.2188,316.9913,38.0585,322.057,-0.00010036,-1.885e-05,0.0,0 STARLINK-3568,1 51856U 22022E   22340.63730533 -.00001885  00000-0 -10036-3 0  9991,2 51856  53.2188 316.9913 0002314  38.0585 322.0570 15.08836022 43545,6917.893,95.438,541.3580000000002,538.1569999999998,0.0
